{
  "type": "FeatureCollection",
  "features": [
    {
      "type": "Feature",
      "properties": {
        "norad_id": 37238,
        "name": "INTELSAT 17 (IS-17)",
        "group": "intelsat",
        "lat": 0.005135080180267038,
        "lon": -144.86850312565764,
        "alt_km": 35783.292733265975,
        "timestamp": "2025-12-21T03:56:50.522090+00:00",
        "meta_object_name": "INTELSAT 17 (IS-17)",
        "meta_object_id": "2010-065B",
        "meta_epoch": "2025-12-20T20:06:02.319840",
        "meta_mean_motion": 1.00271489,
        "meta_eccentricity": 0.0002818,
        "meta_inclination": 0.0304,
        "meta_ra_of_asc_node": 70.3315,
        "meta_arg_of_pericenter": 221.1522,
        "meta_mean_anomaly": 165.6652,
        "meta_ephemeris_type": 0,
        "meta_classification_type": "U",
        "meta_norad_cat_id": 37238,
        "meta_element_set_no": 999,
        "meta_rev_at_epoch": 5146,
        "meta_bstar": 0,
        "meta_mean_motion_dot": 0,
        "meta_mean_motion_ddot": 0,
        "tle_line1": "1 37238U 10065B   25354.83752685  .00000000  00000+0  00000+0 0  9996",
        "tle_line2": "2 37238   0.0304  70.3315 0002818 221.1522 165.6652  1.00271489 51464"
      },
      "geometry": {
        "type": "Point",
        "coordinates": [
          -144.86850312565764,
          0.005135080180267038
        ]
      }
    },
    {
      "type": "Feature",
      "properties": {
        "norad_id": 37392,
        "name": "INTELSAT 28 (IS-28)",
        "group": "intelsat",
        "lat": 0.7472790657964169,
        "lon": 117.46669813478658,
        "alt_km": 35800.82037013347,
        "timestamp": "2025-12-21T03:56:50.522101+00:00",
        "meta_object_name": "INTELSAT 28 (IS-28)",
        "meta_object_id": "2011-016A",
        "meta_epoch": "2025-12-20T18:12:53.382816",
        "meta_mean_motion": 1.00269805,
        "meta_eccentricity": 0.0003683,
        "meta_inclination": 1.3441,
        "meta_ra_of_asc_node": 84.9706,
        "meta_arg_of_pericenter": 188.4044,
        "meta_mean_anomaly": 57.7386,
        "meta_ephemeris_type": 0,
        "meta_classification_type": "U",
        "meta_norad_cat_id": 37392,
        "meta_element_set_no": 999,
        "meta_rev_at_epoch": 5149,
        "meta_bstar": 0,
        "meta_mean_motion_dot": -2.03e-06,
        "meta_mean_motion_ddot": 0,
        "tle_line1": "1 37392U 11016A   25354.75895119 -.00000203  00000+0  00000+0 0  9991",
        "tle_line2": "2 37392   1.3441  84.9706 0003683 188.4044  57.7386  1.00269805 51498"
      },
      "geometry": {
        "type": "Point",
        "coordinates": [
          117.46669813478658,
          0.7472790657964169
        ]
      }
    },
    {
      "type": "Feature",
      "properties": {
        "norad_id": 37834,
        "name": "INTELSAT 18 (IS-18)",
        "group": "intelsat",
        "lat": 0.01048993080630934,
        "lon": -30.795586418639505,
        "alt_km": 35780.6578187353,
        "timestamp": "2025-12-21T03:56:50.522112+00:00",
        "meta_object_name": "INTELSAT 18 (IS-18)",
        "meta_object_id": "2011-056A",
        "meta_epoch": "2025-12-20T14:05:11.189184",
        "meta_mean_motion": 1.00272416,
        "meta_eccentricity": 0.0001673,
        "meta_inclination": 0.0331,
        "meta_ra_of_asc_node": 280.5281,
        "meta_arg_of_pericenter": 6.0874,
        "meta_mean_anomaly": 194.1,
        "meta_ephemeris_type": 0,
        "meta_classification_type": "U",
        "meta_norad_cat_id": 37834,
        "meta_element_set_no": 999,
        "meta_rev_at_epoch": 5202,
        "meta_bstar": 0,
        "meta_mean_motion_dot": 7.7e-07,
        "meta_mean_motion_ddot": 0,
        "tle_line1": "1 37834U 11056A   25354.58693506  .00000077  00000+0  00000+0 0  9991",
        "tle_line2": "2 37834   0.0331 280.5281 0001673   6.0874 194.1000  1.00272416 52029"
      },
      "geometry": {
        "type": "Point",
        "coordinates": [
          -30.795586418639505,
          0.01048993080630934
        ]
      }
    },
    {
      "type": "Feature",
      "properties": {
        "norad_id": 38098,
        "name": "INTELSAT 22 (IS-22)",
        "group": "intelsat",
        "lat": -0.010736827569388426,
        "lon": -138.73653241407257,
        "alt_km": 35782.140918934034,
        "timestamp": "2025-12-21T03:56:50.522122+00:00",
        "meta_object_name": "INTELSAT 22 (IS-22)",
        "meta_object_id": "2012-011A",
        "meta_epoch": "2025-12-20T19:39:43.555104",
        "meta_mean_motion": 1.00270584,
        "meta_eccentricity": 0.0001802,
        "meta_inclination": 0.015,
        "meta_ra_of_asc_node": 42.2438,
        "meta_arg_of_pericenter": 235.0498,
        "meta_mean_anomaly": 179.378,
        "meta_ephemeris_type": 0,
        "meta_classification_type": "U",
        "meta_norad_cat_id": 38098,
        "meta_element_set_no": 999,
        "meta_rev_at_epoch": 540,
        "meta_bstar": 0,
        "meta_mean_motion_dot": -3.5e-07,
        "meta_mean_motion_ddot": 0,
        "tle_line1": "1 38098U 12011A   25354.81925411 -.00000035  00000+0  00000+0 0  9990",
        "tle_line2": "2 38098   0.0150  42.2438 0001802 235.0498 179.3780  1.00270584  5402"
      },
      "geometry": {
        "type": "Point",
        "coordinates": [
          -138.73653241407257,
          -0.010736827569388426
        ]
      }
    },
    {
      "type": "Feature",
      "properties": {
        "norad_id": 38356,
        "name": "INTELSAT 19 (IS-19)",
        "group": "intelsat",
        "lat": -0.028421469458141613,
        "lon": -44.78753715806333,
        "alt_km": 35778.58933845586,
        "timestamp": "2025-12-21T03:56:50.522133+00:00",
        "meta_object_name": "INTELSAT 19 (IS-19)",
        "meta_object_id": "2012-030A",
        "meta_epoch": "2025-12-20T15:43:54.234048",
        "meta_mean_motion": 1.00271302,
        "meta_eccentricity": 0.0002747,
        "meta_inclination": 0.0112,
        "meta_ra_of_asc_node": 5.2378,
        "meta_arg_of_pericenter": 260.8268,
        "meta_mean_anomaly": 225.3973,
        "meta_ephemeris_type": 0,
        "meta_classification_type": "U",
        "meta_norad_cat_id": 38356,
        "meta_element_set_no": 999,
        "meta_rev_at_epoch": 4866,
        "meta_bstar": 0,
        "meta_mean_motion_dot": -3.3e-07,
        "meta_mean_motion_ddot": 0,
        "tle_line1": "1 38356U 12030A   25354.65548882 -.00000033  00000+0  00000+0 0  9991",
        "tle_line2": "2 38356   0.0112   5.2378 0002747 260.8268 225.3973  1.00271302 48669"
      },
      "geometry": {
        "type": "Point",
        "coordinates": [
          -44.78753715806333,
          -0.028421469458141613
        ]
      }
    },
    {
      "type": "Feature",
      "properties": {
        "norad_id": 38740,
        "name": "INTELSAT 20 (IS-20)",
        "group": "intelsat",
        "lat": -0.003033531140100684,
        "lon": -142.30170429391626,
        "alt_km": 35774.776027886575,
        "timestamp": "2025-12-21T03:56:50.522144+00:00",
        "meta_object_name": "INTELSAT 20 (IS-20)",
        "meta_object_id": "2012-043A",
        "meta_epoch": "2025-12-20T13:09:38.733408",
        "meta_mean_motion": 1.00270452,
        "meta_eccentricity": 0.0003401,
        "meta_inclination": 0.0106,
        "meta_ra_of_asc_node": 95.8173,
        "meta_arg_of_pericenter": 86.6493,
        "meta_mean_anomaly": 172.8145,
        "meta_ephemeris_type": 0,
        "meta_classification_type": "U",
        "meta_norad_cat_id": 38740,
        "meta_element_set_no": 999,
        "meta_rev_at_epoch": 4895,
        "meta_bstar": 0,
        "meta_mean_motion_dot": -1e-08,
        "meta_mean_motion_ddot": 0,
        "tle_line1": "1 38740U 12043A   25354.54836497 -.00000001  00000+0  00000+0 0  9997",
        "tle_line2": "2 38740   0.0106  95.8173 0003401  86.6493 172.8145  1.00270452 48953"
      },
      "geometry": {
        "type": "Point",
        "coordinates": [
          -142.30170429391626,
          -0.003033531140100684
        ]
      }
    },
    {
      "type": "Feature",
      "properties": {
        "norad_id": 38749,
        "name": "INTELSAT 21 (IS-21)",
        "group": "intelsat",
        "lat": 0.025411664541180785,
        "lon": 91.18771951718315,
        "alt_km": 35792.221828658454,
        "timestamp": "2025-12-21T03:56:50.522154+00:00",
        "meta_object_name": "INTELSAT 21 (IS-21)",
        "meta_object_id": "2012-045A",
        "meta_epoch": "2025-12-20T18:05:09.125376",
        "meta_mean_motion": 1.00272251,
        "meta_eccentricity": 0.0001494,
        "meta_inclination": 0.0248,
        "meta_ra_of_asc_node": 289.9024,
        "meta_arg_of_pericenter": 330.6782,
        "meta_mean_anomaly": 42.291,
        "meta_ephemeris_type": 0,
        "meta_classification_type": "U",
        "meta_norad_cat_id": 38749,
        "meta_element_set_no": 999,
        "meta_rev_at_epoch": 4873,
        "meta_bstar": 0,
        "meta_mean_motion_dot": -2.61e-06,
        "meta_mean_motion_ddot": 0,
        "tle_line1": "1 38749U 12045A   25354.75357784 -.00000261  00000+0  00000+0 0  9996",
        "tle_line2": "2 38749   0.0248 289.9024 0001494 330.6782  42.2910  1.00272251 48738"
      },
      "geometry": {
        "type": "Point",
        "coordinates": [
          91.18771951718315,
          0.025411664541180785
        ]
      }
    }
  ]
}